     2.100          NAVIGATION                              RINEX VERSION / TYPE
fic2rin                                 10/31/2008 05:32:36 PGM / RUN BY / DATE
                                                            END OF HEADER
23 08 10 31  0  0  0.0  .378487166017D-03  .125055521494D-11  .000000000000D+00
     .670000000000D+02 -.865937500000D+02  .436911056242D-08 -.107813230328D+01
    -.464171171188D-05  .583984144032D-02  .272691249847D-05  .515368102074D+04
     .432000000000D+06 -.111758708954D-07 -.821869049048D+00 -.912696123123D-07
     .971059133219D+00  .331156250000D+03  .286622428611D+01 -.820069873488D-08
    -.211794536378D-09  .100000000000D+01  .150300000000D+04  .000000000000D+00
     .240000000000D+01  .000000000000D+00 -.200234353542D-07  .670000000000D+02
     .424806000000D+06  .400000000000D+01
24 08 10 31  0  0  0.0  .137291382998D-03  .284217094304D-11  .000000000000D+00
     .800000000000D+01  .857187500000D+02  .440946938638D-08  .133529225900D+01
     .446848571301D-05  .737825210672D-02  .105351209641D-04  .515366746521D+04
     .432000000000D+06  .186264514923D-06 -.287032370880D+01  .130385160446D-07
     .952384368049D+00  .171718750000D+03 -.681933675766D+00 -.778282418587D-08
    -.192508018732D-09  .100000000000D+01  .150300000000D+04  .000000000000D+00
     .240000000000D+01  .000000000000D+00 -.139698386192D-08  .800000000000D+01
     .424806000000D+06  .400000000000D+01
25 08 10 31  0  0  0.0 -.164080411196D-04  .321733750752D-10  .000000000000D+00
     .950000000000D+02 -.873125000000D+02  .395016454021D-08  .185562586094D+01
    -.460073351860D-05  .116189863766D-01  .986270606518D-05  .515369836998D+04
     .432000000000D+06  .251457095146D-06  .125719124523D+00 -.316649675369D-07
     .967313021339D+00  .191156250000D+03 -.125098245121D+01 -.753638534927D-08
     .628597612185D-10  .100000000000D+01  .150300000000D+04  .000000000000D+00
     .485000000000D+01  .000000000000D+00 -.745058059692D-08  .950000000000D+02
     .424806000000D+06  .400000000000D+01
26 08 10 31  0  0  0.0  .942451879382D-05  .477484718431D-11  .000000000000D+00
     .870000000000D+02 -.980625000000D+02  .382587364871D-08 -.153826359321D+01
    -.488944351673D-05  .192471813643D-01  .315718352795D-05  .515363533020D+04
     .432000000000D+06  .370666384697D-06 -.776574268715D+00  .130385160446D-07
     .993271920414D+00  .330812500000D+03  .958541477180D+00 -.777532387345D-08
    -.262153776900D-09  .100000000000D+01  .150300000000D+04  .000000000000D+00
     .340000000000D+01  .000000000000D+00 -.605359673500D-08  .870000000000D+02
     .424806000000D+06  .400000000000D+01
27 08 10 31  0  0  0.0  .229110475630D-03  .284217094304D-11  .000000000000D+00
     .800000000000D+02 -.891875000000D+02  .384051711581D-08  .180356559798D+01
    -.501237809658D-05  .213081928669D-01  .100638717413D-04  .515372099304D+04
     .432000000000D+06  .175088644028D-06  .161066856281D+00 -.486150383949D-06
     .971931459567D+00  .191656250000D+03 -.167888427631D+01 -.749531220984D-08
     .121790787361D-09  .100000000000D+01  .150300000000D+04  .000000000000D+00
     .340000000000D+01  .000000000000D+00 -.419095158577D-08  .800000000000D+02
     .424806000000D+06  .400000000000D+01
29 08 10 31  0  0  0.0 -.322465784848D-04  .159161572810D-11  .000000000000D+00
     .180000000000D+02 -.176562500000D+02  .473734018638D-08  .279915997691D+01
    -.110082328320D-05  .331019714940D-02  .676512718201D-05  .515379907036D+04
     .432000000000D+06  .521540641785D-07  .233763506441D+01  .242143869400D-07
     .959674186853D+00  .249125000000D+03 -.134023251580D+01 -.791318675885D-08
    -.398945189097D-09  .100000000000D+01  .150300000000D+04  .000000000000D+00
     .240000000000D+01  .000000000000D+00 -.884756445885D-08  .180000000000D+02
     .424806000000D+06  .400000000000D+01
30 08 10 31  0  0  0.0  .105044804513D-03  .216004991671D-11  .000000000000D+00
     .640000000000D+02  .122187500000D+02  .495163482689D-08  .103688538802D+01
     .512227416039D-06  .111657918897D-01  .705011188984D-05  .515367035675D+04
     .432000000000D+06 -.160187482834D-06  .122645768876D+01 -.484287738800D-07
     .949674631223D+00  .239343750000D+03  .141238201895D+01 -.828891669522D-08
     .470733893670D-09  .100000000000D+01  .150300000000D+04  .000000000000D+00
     .340000000000D+01  .000000000000D+00 -.791624188423D-08  .640000000000D+02
     .424806000000D+06  .400000000000D+01
31 08 10 31  0  0  0.0 -.356207601726D-04 -.227373675443D-11  .000000000000D+00
     .560000000000D+02 -.898125000000D+02  .391730602866D-08 -.275561278828D+01
    -.454299151897D-05  .681655888911D-02  .104419887066D-04  .515357371521D+04
     .432000000000D+06  .838190317154D-07  .217451566531D+00  .335276126862D-07
     .970336552629D+00  .184687500000D+03 -.123828994574D+01 -.750245536452D-08
     .153934983439D-09  .100000000000D+01  .150300000000D+04  .000000000000D+00
     .240000000000D+01  .000000000000D+00 -.130385160446D-07  .560000000000D+02
     .424806000000D+06  .400000000000D+01
32 08 10 31  0  0  0.0  .315346289426D-03 -.795807864051D-12  .000000000000D+00
     .490000000000D+02  .977812500000D+02  .445554273410D-08 -.182877543033D+01
     .536255538464D-05  .139536007773D-01  .279396772385D-05  .515372710991D+04
     .432000000000D+06 -.912696123123D-07 -.178897572287D+01  .348314642906D-06
     .966740120675D+00  .328937500000D+03 -.126114182332D+01 -.815498254490D-08
     .191079387795D-09  .100000000000D+01  .150300000000D+04  .000000000000D+00
     .240000000000D+01  .000000000000D+00 -.325962901115D-08  .490000000000D+02
     .424806000000D+06  .400000000000D+01
25 08 10 30 23 59 44.0 -.163987278938D-04  .324007487507D-10  .000000000000D+00
     .400000000000D+02 -.873125000000D+02  .394980738247D-08  .185329199897D+01
    -.459887087345D-05  .116189774126D-01  .986456871033D-05  .515369834518D+04
     .431984000000D+06  .253319740295D-06  .125719244483D+00 -.298023223877D-07
     .967313009635D+00  .191156250000D+03 -.125098206792D+01 -.753602819154D-08
     .621454457501D-10  .100000000000D+01  .150300000000D+04  .000000000000D+00
     .240000000000D+01  .000000000000D+00 -.745058059692D-08  .400000000000D+02
     .427206000000D+06  .400000000000D+01
27 08 10 30 23 59 44.0  .229100231081D-03  .284217094304D-11  .000000000000D+00
     .700000000000D+01 -.891875000000D+02  .383980280034D-08  .180123196276D+01
    -.501237809658D-05  .213081955444D-01  .100638717413D-04  .515372100449D+04
     .431984000000D+06  .176951289177D-06  .161066987944D+00 -.486150383949D-06
     .971931466881D+00  .191656250000D+03 -.167888431435D+01 -.749495505210D-08
     .121433629627D-09  .100000000000D+01  .150300000000D+04  .000000000000D+00
     .240000000000D+01  .000000000000D+00 -.419095158577D-08  .700000000000D+01
     .428046000000D+06  .400000000000D+01
